CCSDS_OMM_VERS = 2.0
CREATION_DATE  = 
ORIGINATOR     = 

OBJECT_NAME    = ATLAS CENTAUR R/B
OBJECT_ID      = 1972-065B
CENTER_NAME    = EARTH
REF_FRAME      = TEME
TIME_SYSTEM    = UTC
MEAN_ELEMENT_THEORY = SGP/SGP4

EPOCH          = 2026-03-07T01:24:03.194784
MEAN_MOTION    = 14.77677625
ECCENTRICITY   = .0033846
INCLINATION    = 35.0024
RA_OF_ASC_NODE = 321.1746
ARG_OF_PERICENTER = 346.7001
MEAN_ANOMALY   = 13.2805

EPHEMERIS_TYPE = 0
CLASSIFICATION_TYPE = U
NORAD_CAT_ID   = 6155
ELEMENT_SET_NO = 999
REV_AT_EPOCH   = 84087
BSTAR          = .21241E-3
MEAN_MOTION_DOT = .1537E-4
MEAN_MOTION_DDOT = 0

CCSDS_OMM_VERS = 2.0
CREATION_DATE  = 
ORIGINATOR     = 

OBJECT_NAME    = SL-8 R/B
OBJECT_ID      = 1975-112B
CENTER_NAME    = EARTH
REF_FRAME      = TEME
TIME_SYSTEM    = UTC
MEAN_ELEMENT_THEORY = SGP/SGP4

EPOCH          = 2026-03-07T03:18:48.970656
MEAN_MOTION    = 14.38201647
ECCENTRICITY   = .0014501
INCLINATION    = 74.0623
RA_OF_ASC_NODE = 23.6052
ARG_OF_PERICENTER = 117.9261
MEAN_ANOMALY   = 242.3364

EPHEMERIS_TYPE = 0
CLASSIFICATION_TYPE = U
NORAD_CAT_ID   = 8459
ELEMENT_SET_NO = 999
REV_AT_EPOCH   = 63150
BSTAR          = .10544E-3
MEAN_MOTION_DOT = .295E-5
MEAN_MOTION_DDOT = 0

CCSDS_OMM_VERS = 2.0
CREATION_DATE  = 
ORIGINATOR     = 

OBJECT_NAME    = SL-3 R/B
OBJECT_ID      = 1977-057B
CENTER_NAME    = EARTH
REF_FRAME      = TEME
TIME_SYSTEM    = UTC
MEAN_ELEMENT_THEORY = SGP/SGP4

EPOCH          = 2026-03-07T03:05:51.302400
MEAN_MOTION    = 15.45402398
ECCENTRICITY   = .0006225
INCLINATION    = 97.5769
RA_OF_ASC_NODE = 237.9371
ARG_OF_PERICENTER = 295.9608
MEAN_ANOMALY   = 64.0999

EPHEMERIS_TYPE = 0
CLASSIFICATION_TYPE = U
NORAD_CAT_ID   = 10114
ELEMENT_SET_NO = 999
REV_AT_EPOCH   = 66793
BSTAR          = .32787E-3
MEAN_MOTION_DOT = .15598E-3
MEAN_MOTION_DDOT = 0

CCSDS_OMM_VERS = 2.0
CREATION_DATE  = 
ORIGINATOR     = 

OBJECT_NAME    = SEASAT 1
OBJECT_ID      = 1978-064A
CENTER_NAME    = EARTH
REF_FRAME      = TEME
TIME_SYSTEM    = UTC
MEAN_ELEMENT_THEORY = SGP/SGP4

EPOCH          = 2026-03-07T01:48:07.547040
MEAN_MOTION    = 14.46157299
ECCENTRICITY   = .0002279
INCLINATION    = 108.0115
RA_OF_ASC_NODE = 120.0133
ARG_OF_PERICENTER = 285.9434
MEAN_ANOMALY   = 74.1460

EPHEMERIS_TYPE = 0
CLASSIFICATION_TYPE = U
NORAD_CAT_ID   = 10967
ELEMENT_SET_NO = 999
REV_AT_EPOCH   = 50613
BSTAR          = .10647E-3
MEAN_MOTION_DOT = .243E-5
MEAN_MOTION_DDOT = 0

CCSDS_OMM_VERS = 2.0
CREATION_DATE  = 
ORIGINATOR     = 

OBJECT_NAME    = SL-14 R/B
OBJECT_ID      = 1979-011B
CENTER_NAME    = EARTH
REF_FRAME      = TEME
TIME_SYSTEM    = UTC
MEAN_ELEMENT_THEORY = SGP/SGP4

EPOCH          = 2026-03-07T03:58:59.536704
MEAN_MOTION    = 14.91904459
ECCENTRICITY   = .0017516
INCLINATION    = 82.5211
RA_OF_ASC_NODE = 98.9663
ARG_OF_PERICENTER = 68.3206
MEAN_ANOMALY   = 291.9877

EPHEMERIS_TYPE = 0
CLASSIFICATION_TYPE = U
NORAD_CAT_ID   = 11267
ELEMENT_SET_NO = 999
REV_AT_EPOCH   = 52840
BSTAR          = .61279E-4
MEAN_MOTION_DOT = .647E-5
MEAN_MOTION_DDOT = 0

CCSDS_OMM_VERS = 2.0
CREATION_DATE  = 
ORIGINATOR     = 

OBJECT_NAME    = SL-8 R/B
OBJECT_ID      = 1979-089B
CENTER_NAME    = EARTH
REF_FRAME      = TEME
TIME_SYSTEM    = UTC
MEAN_ELEMENT_THEORY = SGP/SGP4

EPOCH          = 2026-03-07T04:18:03.601440
MEAN_MOTION    = 14.42348558
ECCENTRICITY   = .001715
INCLINATION    = 74.0671
RA_OF_ASC_NODE = 95.6917
ARG_OF_PERICENTER = 268.6111
MEAN_ANOMALY   = 91.3081

EPHEMERIS_TYPE = 0
CLASSIFICATION_TYPE = U
NORAD_CAT_ID   = 11574
ELEMENT_SET_NO = 999
REV_AT_EPOCH   = 43574
BSTAR          = .10334E-3
MEAN_MOTION_DOT = .315E-5
MEAN_MOTION_DDOT = 0

CCSDS_OMM_VERS = 2.0
CREATION_DATE  = 
ORIGINATOR     = 

OBJECT_NAME    = SL-14 R/B
OBJECT_ID      = 1980-005B
CENTER_NAME    = EARTH
REF_FRAME      = TEME
TIME_SYSTEM    = UTC
MEAN_ELEMENT_THEORY = SGP/SGP4

EPOCH          = 2026-03-07T04:15:21.287808
MEAN_MOTION    = 14.90926386
ECCENTRICITY   = .0015978
INCLINATION    = 82.5149
RA_OF_ASC_NODE = 309.6194
ARG_OF_PERICENTER = 166.3983
MEAN_ANOMALY   = 193.7670

EPHEMERIS_TYPE = 0
CLASSIFICATION_TYPE = U
NORAD_CAT_ID   = 11672
ELEMENT_SET_NO = 999
REV_AT_EPOCH   = 47611
BSTAR          = .65139E-4
MEAN_MOTION_DOT = .669E-5
MEAN_MOTION_DDOT = 0

CCSDS_OMM_VERS = 2.0
CREATION_DATE  = 
ORIGINATOR     = 

OBJECT_NAME    = SL-8 R/B
OBJECT_ID      = 1981-003B
CENTER_NAME    = EARTH
REF_FRAME      = TEME
TIME_SYSTEM    = UTC
MEAN_ELEMENT_THEORY = SGP/SGP4

EPOCH          = 2026-03-07T02:04:47.450784
MEAN_MOTION    = 15.10845283
ECCENTRICITY   = .0262451
INCLINATION    = 82.9380
RA_OF_ASC_NODE = 292.4312
ARG_OF_PERICENTER = 187.6793
MEAN_ANOMALY   = 172.0391

EPHEMERIS_TYPE = 0
CLASSIFICATION_TYPE = U
NORAD_CAT_ID   = 12139
ELEMENT_SET_NO = 999
REV_AT_EPOCH   = 31428
BSTAR          = .57502E-3
MEAN_MOTION_DOT = .22353E-3
MEAN_MOTION_DDOT = 0

CCSDS_OMM_VERS = 2.0
CREATION_DATE  = 
ORIGINATOR     = 

OBJECT_NAME    = SL-3 R/B
OBJECT_ID      = 1981-046B
CENTER_NAME    = EARTH
REF_FRAME      = TEME
TIME_SYSTEM    = UTC
MEAN_ELEMENT_THEORY = SGP/SGP4

EPOCH          = 2026-03-07T02:58:19.992000
MEAN_MOTION    = 15.41910403
ECCENTRICITY   = .0019768
INCLINATION    = 81.2297
RA_OF_ASC_NODE = 292.8257
ARG_OF_PERICENTER = 31.0770
MEAN_ANOMALY   = 329.1637

EPHEMERIS_TYPE = 0
CLASSIFICATION_TYPE = U
NORAD_CAT_ID   = 12465
ELEMENT_SET_NO = 999
REV_AT_EPOCH   = 43803
BSTAR          = .32169E-3
MEAN_MOTION_DOT = .13802E-3
MEAN_MOTION_DDOT = 0

CCSDS_OMM_VERS = 2.0
CREATION_DATE  = 
ORIGINATOR     = 

OBJECT_NAME    = SL-3 R/B
OBJECT_ID      = 1981-103B
CENTER_NAME    = EARTH
REF_FRAME      = TEME
TIME_SYSTEM    = UTC
MEAN_ELEMENT_THEORY = SGP/SGP4

EPOCH          = 2026-03-07T03:23:41.284320
MEAN_MOTION    = 15.21338252
ECCENTRICITY   = .0012514
INCLINATION    = 81.1587
RA_OF_ASC_NODE = 216.4210
ARG_OF_PERICENTER = 295.7154
MEAN_ANOMALY   = 64.2785

EPHEMERIS_TYPE = 0
CLASSIFICATION_TYPE = U
NORAD_CAT_ID   = 12904
ELEMENT_SET_NO = 999
REV_AT_EPOCH   = 97284
BSTAR          = .31254E-3
MEAN_MOTION_DOT = .7037E-4
MEAN_MOTION_DDOT = 0

CCSDS_OMM_VERS = 2.0
CREATION_DATE  = 
ORIGINATOR     = 

OBJECT_NAME    = SL-3 R/B
OBJECT_ID      = 1982-013B
CENTER_NAME    = EARTH
REF_FRAME      = TEME
TIME_SYSTEM    = UTC
MEAN_ELEMENT_THEORY = SGP/SGP4

EPOCH          = 2026-03-07T03:36:50.848992
MEAN_MOTION    = 15.21983490
ECCENTRICITY   = .0022471
INCLINATION    = 81.1764
RA_OF_ASC_NODE = 163.7457
ARG_OF_PERICENTER = 185.8669
MEAN_ANOMALY   = 174.2304

EPHEMERIS_TYPE = 0
CLASSIFICATION_TYPE = U
NORAD_CAT_ID   = 13068
ELEMENT_SET_NO = 999
REV_AT_EPOCH   = 40396
BSTAR          = .27035E-3
MEAN_MOTION_DOT = .6237E-4
MEAN_MOTION_DDOT = 0

CCSDS_OMM_VERS = 2.0
CREATION_DATE  = 
ORIGINATOR     = 

OBJECT_NAME    = SL-3 R/B
OBJECT_ID      = 1982-039B
CENTER_NAME    = EARTH
REF_FRAME      = TEME
TIME_SYSTEM    = UTC
MEAN_ELEMENT_THEORY = SGP/SGP4

EPOCH          = 2026-03-07T03:19:56.843040
MEAN_MOTION    = 15.10061830
ECCENTRICITY   = .0029792
INCLINATION    = 81.1584
RA_OF_ASC_NODE = 218.9026
ARG_OF_PERICENTER = 332.7779
MEAN_ANOMALY   = 27.1882

EPHEMERIS_TYPE = 0
CLASSIFICATION_TYPE = U
NORAD_CAT_ID   = 13154
ELEMENT_SET_NO = 999
REV_AT_EPOCH   = 38125
BSTAR          = .19785E-3
MEAN_MOTION_DOT = .3275E-4
MEAN_MOTION_DDOT = 0

